METEOR-M2 3             
1 57166U 23091A   25307.83583816  .00000023  00000+0  28911-4 0  9998
2 57166  98.6436   2.0434 0005071 103.1927 256.9817 14.24018634122446
STRATOSAT-TK 1 (RS52S)  
1 57167U 23091B   25307.78183786  .00132709  00000+0  16308-2 0  9997
2 57167  97.5311  17.4605 0005060 144.8993 215.2598 15.59820130130770
UMKA 1 (RS40S)          
1 57172U 23091G   25307.77901707  .00008181  00000+0  41194-3 0  9991
2 57172  97.5405   2.4225 0013823 178.5672 181.5603 15.17373472129783
2023-091H               
1 57173U 23091H   25307.78885869  .00013358  00000+0  57688-3 0  9990
2 57173  97.5400   4.6790 0011327 179.3579 180.7674 15.22570080129938
2023-091J               
1 57174U 23091J   25307.79746980  .00004275  00000+0  25372-3 0  9995
2 57174  97.5414 358.9723 0013314 198.7327 161.3415 15.11793138129554
CUBEBEL 2 (EU11S)       
1 57175U 23091K   25307.76790462  .00013581  00000+0  58550-3 0  9991
2 57175  97.5405   4.5693 0011291 181.2678 178.8532 15.22625035129929
SITRO-AIS 5 (KATYS)     
1 57176U 23091L   25307.84134796  .00014313  00000+0  60764-3 0  9997
2 57176  97.5410   5.1725 0013361 170.2418 189.9081 15.23112043129966
ZORKIY-2M 1             
1 57177U 23091M   25307.88074288  .00008573  00000+0  43549-3 0  9994
2 57177  97.5447   2.7100 0014622 174.9895 185.1487 15.17039450129790
CUBESX-HSE 3 (RS42S)    
1 57178U 23091N   25307.83694865  .00014733  00000+0  60365-3 0  9999
2 57178  97.5439   6.2540 0013023 162.0904 198.0794 15.24308655130017
MONITOR-3 (RS58S)       
1 57180U 23091Q   25307.84562355  .00012896  00000+0  56335-3 0  9991
2 57180  97.5432   5.1008 0013649 166.0945 194.0670 15.22161901129941
MONITOR-4 (RS57S)       
1 57182U 23091S   25307.83677530  .00012734  00000+0  55529-3 0  9999
2 57182  97.5428   5.0516 0013662 166.5725 193.5877 15.22225313129948
MONITOR-2 (RS39S)       
1 57184U 23091U   25307.88766664  .00006561  00000+0  34380-3 0  9996
2 57184  97.5434   2.6069 0012230 168.2013 191.9509 15.16065984129787
SVYATOBOR 1 (RS60S)     
1 57187U 23091X   25307.84083552  .00011442  00000+0  50773-3 0  9991
2 57187  97.5440   5.7487 0011066 156.4876 203.6867 15.21687358129988
HORS 1                  
1 57188U 23091Y   25307.83625851  .00011505  00000+0  51005-3 0  9994
2 57188  97.5420   5.5451 0010594 156.1759 203.9970 15.21722174129982
VIZARD-METEO (RS38S)    
1 57189U 23091Z   25307.88518916  .00017235  00000+0  63903-3 0  9999
2 57189  97.5429   8.8141 0009547 145.1748 215.0117 15.27641422130190
NANOZOND 1 (RS49S)      
1 57190U 23091AA  25307.88384078  .00058309  00000+0  11475-2 0  9994
2 57190  97.5372  16.0078 0005698 132.1375 228.0360 15.47045134130682
SITRO-AIS 6 (CHIRKIN)   
1 57192U 23091AC  25307.85692212  .00008016  00000+0  35173-3 0  9997
2 57192  97.5410   5.1299 0013363 168.6041 191.5500 15.22151727129961
SITRO-AIS 8 (ANOKHIN)   
1 57193U 23091AD  25307.85710416  .00016161  00000+0  65173-3 0  9998
2 57193  97.5406   6.0273 0012693 168.3657 191.7877 15.24825317130027
SITRO-AIS 7 (FARTUSHNIY)
1 57194U 23091AE  25307.88995895  .00007383  00000+0  32575-3 0  9994
2 57194  97.5410   5.0746 0013137 169.1429 191.0093 15.21993183129965
AVION KALUGA 650        
1 57195U 23091AF  25307.85940258  .00007231  00000+0  36732-3 0  9996
2 57195  97.5444   3.3938 0011443 167.4125 192.7396 15.17135879129823
HORS 2                  
1 57196U 23091AG  25307.86327367  .00014624  00000+0  58682-3 0  9990
2 57196  97.5434   7.5022 0010068 152.5930 207.5841 15.25043962130107
A-SEANSAT-PG1           
1 57197U 23091AH  25307.84928920  .00016867  00000+0  61350-3 0  9998
2 57197  97.5412   8.6672 0009356 151.5002 208.6750 15.28280277130199
SITRO-AIS 10 (BURDAEV)  
1 57199U 23091AK  25307.87935558  .00019630  00000+0  69870-3 0  9994
2 57199  97.5419   9.2235 0009155 148.0269 212.1528 15.28960940130222
SITRO-AIS 9 (SHCHUKIN)  
1 57201U 23091AM  25307.85171753  .00019344  00000+0  69404-3 0  9990
2 57201  97.5419   9.0567 0009154 148.6682 211.5104 15.28703000130210
UTMN 2 (RS27S)          
1 57203U 23091AP  25307.85619556  .00015209  00000+0  60578-3 0  9999
2 57203  97.5428   7.6196 0010122 148.9438 211.2399 15.25283536130119
SITRO-AIS 12 (SMIRENNIY)
1 57204U 23091AQ  25307.87923424  .00019122  00000+0  68127-3 0  9990
2 57204  97.5427   9.4321 0009123 142.5207 217.6670 15.28934677130239
ARCCUBE 1 (RS25S)       
1 57205U 23091AR  25305.68490916  .00284883  00000+0  17686-2 0  9994
2 57205  97.5216  19.1011 0001785 210.2504 149.8659 15.76198906130726
SITRO-AIS 11 (SHEFFER)  
1 57208U 23091AU  25307.87610727  .00019967  00000+0  70587-3 0  9993
2 57208  97.5426   9.5656 0009044 142.6193 217.5678 15.29180722130244
H2SAT (HEINRICH HERTZ)  
1 57213U 23093A   25301.82912450 -.00000069  00000+0  00000+0 0  9991
2 57213   0.0336 225.3793 0001762  66.4383  45.2959  0.99793009  8591
KUZGTU 1 (RS47S)        
1 57217U 23091AV  25307.86422983  .00013829  00000+0  58065-3 0  9995
2 57217  97.5412   5.6296 0013066 164.4484 195.7156 15.23497845129999
QIANKUN-1               
1 57422U 23103B   25303.60543075 -.00000769  16902-5 -40387-6 0  9997
2 57422  96.2733 358.4978 0035986 154.1365 206.1726 16.01081638130464
FENGYUN 3F              
1 57490U 23111A   25307.83360506  .00000091  00000+0  63509-4 0  9997
2 57490  98.7128  16.7466 0001247  77.6429 282.4887 14.19877481116884
HJ-2F                   
1 57519U 23116A   25307.83189755  .00011253  00000+0  50463-3 0  9995
2 57519  97.3876 312.1842 0009313  84.3266 275.9032 15.21339054124485
XRISM                   
1 57800U 23137A   25306.51268992  .00006402  00000+0  38162-3 0  9998
2 57800  31.0029  25.1476 0008234 199.0815 160.9515 15.09705798118549
METEOR-M2 4             
1 59051U 24039A   25307.87548912  .00000045  00000+0  39703-4 0  9993
2 59051  98.6703 265.4058 0008140  99.8559 260.3538 14.22391862 87238
GRBBETA                 
1 60237U 24128C   25307.53771579  .00005138  00000+0  37042-3 0  9991
2 60237  61.9901 286.6362 0057071  88.2817 272.4810 15.04167827 72298
2024-149A               
1 60468U 24149A   25306.18125395  .00009670  00000+0  35663-3 0  9991
2 60468  97.3966  22.3136 0002468 326.9689  33.1396 15.27995861 67333
WARATAH SEED-1          
1 60469U 24149B   25306.44097323  .00013519  00000+0  48255-3 0  9998
2 60469  97.3941  22.6264 0001310 345.8489  14.2714 15.28984636 67383
PHISAT 2                
1 60470U 24149C   25306.43190395  .00008137  00000+0  31321-3 0  9998
2 60470  97.3994  22.3045 0001263  27.3540 332.7765 15.26631713 67347
LEMUR-2-TOMATOKECHUP    
1 60471U 24149D   25306.45009816  .00011802  00000+0  40902-3 0  9996
2 60471  97.4023  23.6293 0001336  14.0642 346.0636 15.29983503 67422
CONNECTA IOT-1          
1 60472U 24149E   25307.65552037  .00006459  00000+0  27857-3 0  9994
2 60472  97.4009  22.6937 0002055  34.0218 326.1150 15.22881734 67472
LOPEN                   
1 60473U 24149F   25307.65967686  .00015702  00000+0  51321-3 0  9999
2 60473  97.4005  25.2864 0001551  26.0816 334.0503 15.31813381 67644
ROCK                    
1 60474U 24149G   25306.47352758  .00014919  00000+0  48768-3 0  9997
2 60474  97.4003  24.1192 0001611  29.0256 331.1074 15.31819595 67467
CONNECTA IOT-3          
1 60475U 24149H   25307.67014071  .00008802  00000+0  38721-3 0  9996
2 60475  97.3981  22.5506 0002838  12.3400 347.7905 15.22101677 67484
QUBE                    
1 60476U 24149J   25306.17597245  .00021385  00000+0  62220-3 0  9992
2 60476  97.3999  24.9591 0001780 356.7732   3.3499 15.35450454 67490
SATORO-T2               
1 60477U 24149K   25306.49129927  .00074029  00000+0  12823-2 0  9992
2 60477  97.3951  28.3479 0001233 268.6613  91.4498 15.50654397 67759
WREN-1                  
1 60478U 24149L   25306.46486389  .00012904  00000+0  42150-3 0  9999
2 60478  97.3993  24.6223 0005206  11.6953 348.4409 15.31867034 67502
TOMORROW-S1             
1 60479U 24149M   25306.17513306  .00008072  00000+0  29509-3 0  9992
2 60479  97.3975  22.7846 0002455   9.4859 350.6426 15.28340776 67369
FLOCK 4BE-18            
1 60480U 24149N   25307.63887561  .00019745  00000+0  63061-3 0  9993
2 60480  97.3967  25.2416 0003942 358.3199   1.8029 15.32500558 67655
FLOCK 4BE-7             
1 60481U 24149P   25307.65999825  .00017041  00000+0  56350-3 0  9993
2 60481  97.3998  25.0890 0003080   6.5615 353.5666 15.31417295 67638
FLOCK 4BE-4             
1 60482U 24149Q   25307.64860024  .00515083  00000+0  23016-2 0  9992
2 60482  97.3934  37.5417 0009475 277.5382  82.4810 15.82874296 68451
FLOCK 4BE-16            
1 60483U 24149R   25306.45260236  .00065958  00000+0  20147-2 0  9993
2 60483  97.3980  24.1984 0003626   1.1314 358.9936 15.33643944 67473
FLOCK 4BE-26            
1 60484U 24149S   25306.46233189  .00017113  00000+0  55749-3 0  9999
2 60484  97.3963  23.8741 0003453   9.5280 350.6027 15.31895846 67461
TOMORROW-S2             
1 60485U 24149T   25306.43353779  .00008683  00000+0  31937-3 0  9990
2 60485  97.4042  23.4075 0003053  20.2435 339.8925 15.28115077 67402
FLOCK 4BE-36            
1 60486U 24149U   25307.73643493  .00017811  00000+0  55351-3 0  9999
2 60486  97.3968  25.7135 0004024   8.0432 352.0874 15.33396049 67698
FLOCK 4BE-25            
1 60487U 24149V   25306.21539467  .00016227  00000+0  54155-3 0  9998
2 60487  97.4026  23.7898 0002494  18.2744 341.8587 15.31130523 67415
FLOCK 4BE-31            
1 60488U 24149W   25306.19204914  .00018042  00000+0  55317-3 0  9990
2 60488  97.4021  24.5743 0003072  17.8795 342.2555 15.33825757 67460
FLOCK 4BE-20            
1 60489U 24149X   25306.21629349  .00015819  00000+0  53315-3 0  9992
2 60489  97.3940  23.1742 0003822  14.1221 346.0126 15.30814882 67405
FLOCK 4BE-23            
1 60490U 24149Y   25307.65830111  .00016320  00000+0  55487-3 0  9994
2 60490  97.4014  24.8656 0003678  15.0824 345.0526 15.30524328 67619
